<?xml version="1.0" encoding="UTF-8"?>
<ndm xmlns:xsi="http://www.w3.org/2001/XMLSchema-instance" xsi:noNamespaceSchemaLocation="https://sanaregistry.org/r/ndmxml_unqualified/ndmxml-2.0.0-master-2.0.xsd">
<omm id="CCSDS_OMM_VERS" version="2.0">
<header><CREATION_DATE/><ORIGINATOR/></header><body><segment><metadata><OBJECT_NAME>KUIPER-00044</OBJECT_NAME><OBJECT_ID>2025-134F</OBJECT_ID><CENTER_NAME>EARTH</CENTER_NAME><REF_FRAME>TEME</REF_FRAME><TIME_SYSTEM>UTC</TIME_SYSTEM><MEAN_ELEMENT_THEORY>SGP4</MEAN_ELEMENT_THEORY></metadata><data><meanElements><EPOCH>2025-12-11T05:14:35.730240</EPOCH><MEAN_MOTION>14.79946378</MEAN_MOTION><ECCENTRICITY>.00116121</ECCENTRICITY><INCLINATION>51.9002</INCLINATION><RA_OF_ASC_NODE>277.8137</RA_OF_ASC_NODE><ARG_OF_PERICENTER>341.7167</ARG_OF_PERICENTER><MEAN_ANOMALY>18.3376</MEAN_ANOMALY></meanElements><tleParameters><EPHEMERIS_TYPE>0</EPHEMERIS_TYPE><CLASSIFICATION_TYPE>U</CLASSIFICATION_TYPE><NORAD_CAT_ID>64505</NORAD_CAT_ID><ELEMENT_SET_NO>999</ELEMENT_SET_NO><REV_AT_EPOCH>2678</REV_AT_EPOCH><BSTAR>.58973882E-3</BSTAR><MEAN_MOTION_DOT>.4281E-4</MEAN_MOTION_DOT><MEAN_MOTION_DDOT>0</MEAN_MOTION_DDOT></tleParameters></data></segment></body></omm>
<omm id="CCSDS_OMM_VERS" version="2.0">
<header><CREATION_DATE/><ORIGINATOR/></header><body><segment><metadata><OBJECT_NAME>KUIPER-00046</OBJECT_NAME><OBJECT_ID>2025-134G</OBJECT_ID><CENTER_NAME>EARTH</CENTER_NAME><REF_FRAME>TEME</REF_FRAME><TIME_SYSTEM>UTC</TIME_SYSTEM><MEAN_ELEMENT_THEORY>SGP4</MEAN_ELEMENT_THEORY></metadata><data><meanElements><EPOCH>2025-12-11T05:09:31.595328</EPOCH><MEAN_MOTION>14.80576092</MEAN_MOTION><ECCENTRICITY>.00123902</ECCENTRICITY><INCLINATION>51.8988</INCLINATION><RA_OF_ASC_NODE>274.2147</RA_OF_ASC_NODE><ARG_OF_PERICENTER>352.8199</ARG_OF_PERICENTER><MEAN_ANOMALY>7.2584</MEAN_ANOMALY></meanElements><tleParameters><EPHEMERIS_TYPE>0</EPHEMERIS_TYPE><CLASSIFICATION_TYPE>U</CLASSIFICATION_TYPE><NORAD_CAT_ID>64506</NORAD_CAT_ID><ELEMENT_SET_NO>999</ELEMENT_SET_NO><REV_AT_EPOCH>2683</REV_AT_EPOCH><BSTAR>.13864056E-2</BSTAR><MEAN_MOTION_DOT>.10537E-3</MEAN_MOTION_DOT><MEAN_MOTION_DDOT>0</MEAN_MOTION_DDOT></tleParameters></data></segment></body></omm>
<omm id="CCSDS_OMM_VERS" version="2.0">
<header><CREATION_DATE/><ORIGINATOR/></header><body><segment><metadata><OBJECT_NAME>KUIPER-00047</OBJECT_NAME><OBJECT_ID>2025-134H</OBJECT_ID><CENTER_NAME>EARTH</CENTER_NAME><REF_FRAME>TEME</REF_FRAME><TIME_SYSTEM>UTC</TIME_SYSTEM><MEAN_ELEMENT_THEORY>SGP4</MEAN_ELEMENT_THEORY></metadata><data><meanElements><EPOCH>2025-12-10T23:57:11.918304</EPOCH><MEAN_MOTION>14.82958361</MEAN_MOTION><ECCENTRICITY>.00085642</ECCENTRICITY><INCLINATION>51.8976</INCLINATION><RA_OF_ASC_NODE>246.8834</RA_OF_ASC_NODE><ARG_OF_PERICENTER>8.3749</ARG_OF_PERICENTER><MEAN_ANOMALY>351.7356</MEAN_ANOMALY></meanElements><tleParameters><EPHEMERIS_TYPE>0</EPHEMERIS_TYPE><CLASSIFICATION_TYPE>U</CLASSIFICATION_TYPE><NORAD_CAT_ID>64507</NORAD_CAT_ID><ELEMENT_SET_NO>999</ELEMENT_SET_NO><REV_AT_EPOCH>2719</REV_AT_EPOCH><BSTAR>.78283671E-3</BSTAR><MEAN_MOTION_DOT>.6197E-4</MEAN_MOTION_DOT><MEAN_MOTION_DDOT>0</MEAN_MOTION_DDOT></tleParameters></data></segment></body></omm>
<omm id="CCSDS_OMM_VERS" version="2.0">
<header><CREATION_DATE/><ORIGINATOR/></header><body><segment><metadata><OBJECT_NAME>KUIPER-00048</OBJECT_NAME><OBJECT_ID>2025-134J</OBJECT_ID><CENTER_NAME>EARTH</CENTER_NAME><REF_FRAME>TEME</REF_FRAME><TIME_SYSTEM>UTC</TIME_SYSTEM><MEAN_ELEMENT_THEORY>SGP4</MEAN_ELEMENT_THEORY></metadata><data><meanElements><EPOCH>2025-12-11T02:49:08.607936</EPOCH><MEAN_MOTION>14.79966588</MEAN_MOTION><ECCENTRICITY>.00031459</ECCENTRICITY><INCLINATION>51.8991</INCLINATION><RA_OF_ASC_NODE>247.2500</RA_OF_ASC_NODE><ARG_OF_PERICENTER>130.2523</ARG_OF_PERICENTER><MEAN_ANOMALY>229.8715</MEAN_ANOMALY></meanElements><tleParameters><EPHEMERIS_TYPE>0</EPHEMERIS_TYPE><CLASSIFICATION_TYPE>U</CLASSIFICATION_TYPE><NORAD_CAT_ID>64508</NORAD_CAT_ID><ELEMENT_SET_NO>999</ELEMENT_SET_NO><REV_AT_EPOCH>2720</REV_AT_EPOCH><BSTAR>.38593905E-2</BSTAR><MEAN_MOTION_DOT>.29354E-3</MEAN_MOTION_DOT><MEAN_MOTION_DDOT>0</MEAN_MOTION_DDOT></tleParameters></data></segment></body></omm>
<omm id="CCSDS_OMM_VERS" version="2.0">
<header><CREATION_DATE/><ORIGINATOR/></header><body><segment><metadata><OBJECT_NAME>KUIPER-00049</OBJECT_NAME><OBJECT_ID>2025-134K</OBJECT_ID><CENTER_NAME>EARTH</CENTER_NAME><REF_FRAME>TEME</REF_FRAME><TIME_SYSTEM>UTC</TIME_SYSTEM><MEAN_ELEMENT_THEORY>SGP4</MEAN_ELEMENT_THEORY></metadata><data><meanElements><EPOCH>2025-12-11T04:04:29.360064</EPOCH><MEAN_MOTION>14.79962273</MEAN_MOTION><ECCENTRICITY>.00029221</ECCENTRICITY><INCLINATION>51.9001</INCLINATION><RA_OF_ASC_NODE>260.4896</RA_OF_ASC_NODE><ARG_OF_PERICENTER>6.2508</ARG_OF_PERICENTER><MEAN_ANOMALY>353.8490</MEAN_ANOMALY></meanElements><tleParameters><EPHEMERIS_TYPE>0</EPHEMERIS_TYPE><CLASSIFICATION_TYPE>U</CLASSIFICATION_TYPE><NORAD_CAT_ID>64509</NORAD_CAT_ID><ELEMENT_SET_NO>999</ELEMENT_SET_NO><REV_AT_EPOCH>2702</REV_AT_EPOCH><BSTAR>.12562911E-2</BSTAR><MEAN_MOTION_DOT>.9376E-4</MEAN_MOTION_DOT><MEAN_MOTION_DDOT>0</MEAN_MOTION_DDOT></tleParameters></data></segment></body></omm>
<omm id="CCSDS_OMM_VERS" version="2.0">
<header><CREATION_DATE/><ORIGINATOR/></header><body><segment><metadata><OBJECT_NAME>KUIPER-00050</OBJECT_NAME><OBJECT_ID>2025-134L</OBJECT_ID><CENTER_NAME>EARTH</CENTER_NAME><REF_FRAME>TEME</REF_FRAME><TIME_SYSTEM>UTC</TIME_SYSTEM><MEAN_ELEMENT_THEORY>SGP4</MEAN_ELEMENT_THEORY></metadata><data><meanElements><EPOCH>2025-12-10T18:35:26.380896</EPOCH><MEAN_MOTION>14.96625214</MEAN_MOTION><ECCENTRICITY>.00048411</ECCENTRICITY><INCLINATION>51.8889</INCLINATION><RA_OF_ASC_NODE>255.9366</RA_OF_ASC_NODE><ARG_OF_PERICENTER>32.0300</ARG_OF_PERICENTER><MEAN_ANOMALY>328.0963</MEAN_ANOMALY></meanElements><tleParameters><EPHEMERIS_TYPE>0</EPHEMERIS_TYPE><CLASSIFICATION_TYPE>U</CLASSIFICATION_TYPE><NORAD_CAT_ID>64510</NORAD_CAT_ID><ELEMENT_SET_NO>999</ELEMENT_SET_NO><REV_AT_EPOCH>2705</REV_AT_EPOCH><BSTAR>.10874974E-2</BSTAR><MEAN_MOTION_DOT>.12294E-3</MEAN_MOTION_DOT><MEAN_MOTION_DDOT>0</MEAN_MOTION_DDOT></tleParameters></data></segment></body></omm>
<omm id="CCSDS_OMM_VERS" version="2.0">
<header><CREATION_DATE/><ORIGINATOR/></header><body><segment><metadata><OBJECT_NAME>KUIPER-00051</OBJECT_NAME><OBJECT_ID>2025-134M</OBJECT_ID><CENTER_NAME>EARTH</CENTER_NAME><REF_FRAME>TEME</REF_FRAME><TIME_SYSTEM>UTC</TIME_SYSTEM><MEAN_ELEMENT_THEORY>SGP4</MEAN_ELEMENT_THEORY></metadata><data><meanElements><EPOCH>2025-12-11T04:08:26.204928</EPOCH><MEAN_MOTION>14.79955190</MEAN_MOTION><ECCENTRICITY>.00023263</ECCENTRICITY><INCLINATION>51.9010</INCLINATION><RA_OF_ASC_NODE>258.0431</RA_OF_ASC_NODE><ARG_OF_PERICENTER>13.5841</ARG_OF_PERICENTER><MEAN_ANOMALY>346.5184</MEAN_ANOMALY></meanElements><tleParameters><EPHEMERIS_TYPE>0</EPHEMERIS_TYPE><CLASSIFICATION_TYPE>U</CLASSIFICATION_TYPE><NORAD_CAT_ID>64511</NORAD_CAT_ID><ELEMENT_SET_NO>999</ELEMENT_SET_NO><REV_AT_EPOCH>2705</REV_AT_EPOCH><BSTAR>.84513365E-3</BSTAR><MEAN_MOTION_DOT>.6231E-4</MEAN_MOTION_DOT><MEAN_MOTION_DDOT>0</MEAN_MOTION_DDOT></tleParameters></data></segment></body></omm>
<omm id="CCSDS_OMM_VERS" version="2.0">
<header><CREATION_DATE/><ORIGINATOR/></header><body><segment><metadata><OBJECT_NAME>KUIPER-00052</OBJECT_NAME><OBJECT_ID>2025-134N</OBJECT_ID><CENTER_NAME>EARTH</CENTER_NAME><REF_FRAME>TEME</REF_FRAME><TIME_SYSTEM>UTC</TIME_SYSTEM><MEAN_ELEMENT_THEORY>SGP4</MEAN_ELEMENT_THEORY></metadata><data><meanElements><EPOCH>2025-12-11T04:13:49.899072</EPOCH><MEAN_MOTION>15.71454306</MEAN_MOTION><ECCENTRICITY>.00031431</ECCENTRICITY><INCLINATION>51.8618</INCLINATION><RA_OF_ASC_NODE>202.7308</RA_OF_ASC_NODE><ARG_OF_PERICENTER>93.4344</ARG_OF_PERICENTER><MEAN_ANOMALY>266.7016</MEAN_ANOMALY></meanElements><tleParameters><EPHEMERIS_TYPE>0</EPHEMERIS_TYPE><CLASSIFICATION_TYPE>U</CLASSIFICATION_TYPE><NORAD_CAT_ID>64512</NORAD_CAT_ID><ELEMENT_SET_NO>999</ELEMENT_SET_NO><REV_AT_EPOCH>2781</REV_AT_EPOCH><BSTAR>.23803791E-2</BSTAR><MEAN_MOTION_DOT>.322344E-2</MEAN_MOTION_DOT><MEAN_MOTION_DDOT>0</MEAN_MOTION_DDOT></tleParameters></data></segment></body></omm>

</ndm>
