KUIPER-00044            
1 64505U 25134F   25345.21846910  .00004281  00000+0  58974-3 0  9995
2 64505  51.9002 277.8137 0011612 341.7167  18.3376 14.79946378 26783
KUIPER-00046            
1 64506U 25134G   25345.21494902  .00010537  00000+0  13864-2 0  9995
2 64506  51.8988 274.2147 0012390 352.8199   7.2584 14.80576092 26838
KUIPER-00047            
1 64507U 25134H   25344.99805461  .00006197  00000+0  78284-3 0  9991
2 64507  51.8976 246.8834 0008564   8.3749 351.7356 14.82958361 27195
KUIPER-00048            
1 64508U 25134J   25345.11746074  .00029354  00000+0  38594-2 0  9990
2 64508  51.8991 247.2500 0003145 130.2523 229.8715 14.79966588 27205
KUIPER-00049            
1 64509U 25134K   25345.16978426  .00009376  00000+0  12563-2 0  9994
2 64509  51.9001 260.4896 0002922   6.2508 353.8490 14.79962273 27026
KUIPER-00050            
1 64510U 25134L   25344.77461089  .00012294  00000+0  10875-2 0  9991
2 64510  51.8889 255.9366 0004841  32.0300 328.0963 14.96625214 27053
KUIPER-00051            
1 64511U 25134M   25345.17252552  .00006231  00000+0  84513-3 0  9995
2 64511  51.9010 258.0431 0002326  13.5841 346.5184 14.79955190 27058
KUIPER-00052            
1 64512U 25134N   25345.17627198  .00322344  00000+0  23804-2 0  9999
2 64512  51.8618 202.7308 0003143  93.4344 266.7016 15.71454306 27811
